HELLAS-SAT 2            
1 27811U 03020A   23059.38804937 -.00000089  00000+0  00000+0 0  9991
2 27811   4.3247  81.8251 0006628 247.7759 317.9936  1.00272705 30767
THURAYA-2               
1 27825U 03026A   23059.54224394  .00000122  00000+0  00000+0 0  9990
2 27825   7.0611  34.5682 0002111 296.3611  66.3673  1.00274172 72275
OPTUS C1                
1 27831U 03028B   23059.49282147 -.00000157  00000+0  00000+0 0  9992
2 27831   3.8428  83.6162 0005704 259.2515 148.2892  1.00272545 40980
GALAXY 23 (G-23)        
1 27854U 03034A   23059.51585242  .00000008  00000+0  00000+0 0  9993
2 27854   0.0813 102.7810 0002712 256.7560 223.2315  1.00271238 71664
USA 170                 
1 27875U 03040A   23059.38159917 -.00000279  00000+0  00000+0 0  9995
2 27875   7.9227  58.1051 0002019 300.0455 254.8274  1.00272363 20881
GALAXY 13 (HORIZONS-1)  
1 27954U 03044A   23059.50824964  .00000043  00000+0  00000+0 0  9990
2 27954   0.0066 143.7482 0001766 206.9343 223.3125  1.00270429 34490
YAMAL 202               
1 28089U 03053A   23059.52618891 -.00000087  00000+0  00000+0 0  9991
2 28089   3.2801  85.2044 0002702 259.4068 166.3646  1.00271243 70606
UFO 11 (USA 174)        
1 28117U 03057A   23059.47678316 -.00000107  00000+0  00000+0 0  9992
2 28117   7.3465  37.6974 0003508 343.0838  24.2288  1.00273582 70378
USA 176 (DSP 22)        
1 28158U 04004A   23059.49493694 -.00000224  00000+0  00000+0 0  9996
2 28158  10.4260  33.8365 0001003 260.2404 129.5060  1.00274161 19532
ABS-4 (MOBISAT-1)       
1 28184U 04007A   23059.40225722  .00000034  00000+0  00000+0 0  9992
2 28184   2.9692  86.3069 0005501 258.3096  19.0677  1.00273081 40252
EUTELSAT 7A             
1 28187U 04008A   23059.55882833  .00000098  00000+0  00000+0 0  9994
2 28187   2.7551  85.7768 0004322 249.8031 244.4537  1.00272518 69276
AMC-11 (GE-11)          
1 28252U 04017A   23059.52398931 -.00000055  00000+0  00000+0 0  9999
2 28252   0.0594 295.5642 0002613  20.7724 279.2539  1.00273239 68790
INTELSAT 10-02          
1 28358U 04022A   23059.31816671 -.00000017  00000+0  00000+0 0  9993
2 28358   0.0445 275.3216 0001078  62.3833 293.7009  1.00272263 68465
ANIK F2                 
1 28378U 04027A   23059.52398986 -.00000055  00000+0  00000+0 0  9999
2 28378   0.2805  91.5706 0001420 286.2287 217.7910  1.00272476 29181
AMC-15                  
1 28446U 04041A   23059.52716889 -.00000094  00000+0  00000+0 0  9990
2 28446   0.0629 294.4047 0002715  25.3310 283.0390  1.00271829 67235
NSS-10 (AMC-12)         
1 28526U 05003A   23059.49910515 -.00000258  00000+0  00000+0 0  9998
2 28526   3.4196  84.5920 0003186 241.6247 334.0333  1.00270933 41076
XTAR-EUR                
1 28542U 05005A   23058.73875607  .00000145  00000+0  00000+0 0  9990
2 28542   1.2251  91.6691 0003596 239.1083 121.4373  1.00271585 66108
XM-3 (RHYTHM)           
1 28626U 05008A   23059.08630831 -.00000210  00000+0  00000+0 0  9997
2 28626   0.0171 231.1530 0000175 349.4501 242.9777  1.00269384 30542
INMARSAT 4-F1           
1 28628U 05009A   23058.70158810 -.00000267  00000+0  00000+0 0  9992
2 28628   3.8146  37.5716 0002991 303.1907 212.5492  1.00271167 65587
DIRECTV 8               
1 28659U 05019A   23059.50981861 -.00000004  00000+0  00000+0 0  9995
2 28659   0.0156 225.9093 0003076 122.2896 234.3254  1.00272636 64998
GALAXY 28 (G-28)        
1 28702U 05022A   23059.53966840 -.00000191  00000+0  00000+0 0  9998
2 28702   0.1849  91.3963 0003290 260.9087 271.0603  1.00270839 39900
THAICOM 4               
1 28786U 05028A   23059.01021670 -.00000368  00000+0  00000+0 0  9998
2 28786   0.0179 131.9325 0002283 200.4450 308.3191  1.00272569 40162
GALAXY 14 (G-14)        
1 28790U 05030A   23059.61175838  .00000149  00000+0  00000+0 0  9994
2 28790   1.9118  89.4249 0002167 238.5704  83.2620  1.00270916 64220
ANIK F1R                
1 28868U 05036A   23059.52612021 -.00000080  00000+0  00000+0 0  9991
2 28868   1.2105  91.2486 0001557 273.0761 235.8268  1.00272308 34371
GALAXY 15 (G-15)        
1 28884U 05041A   23059.52398986 -.00000063  00000+0  00000+0 0  9997
2 28884   0.4642  92.5886 0004254 233.8337 269.1847  1.00323051 63539
SYRACUSE 3A             
1 28885U 05041B   23059.54285410  .00000122  00000+0  00000+0 0  9992
2 28885   1.7670  90.3320 0003349 249.4390  60.7449  1.00274685 63665
INMARSAT 4-F2           
1 28899U 05044A   23059.11594435  .00000005  00000+0  00000+0 0  9993
2 28899   3.7106  39.5408 0002963 298.5927 285.1623  1.00272747 63439
SPACEWAY 2              
1 28903U 05046B   23059.50247028  .00000097  00000+0  00000+0 0  9998
2 28903   2.4923  85.4078 0000633 146.5093 328.0765  1.00271897 39262
METEOSAT-9 (MSG-2)      
1 28912U 05049B   23059.54267976  .00000120  00000+0  00000+0 0  9996
2 28912   6.5994  64.5598 0001912 199.8120 134.9340  1.00278948 62952
EUTELSAT 174A           
1 28924U 05052A   23059.61646436  .00000004  00000+0  00000+0 0  9994
2 28924   1.1516  90.7986 0006336 249.1708 214.0932  1.00273621 40253
ECHOSTAR 10             
1 28935U 06003A   23059.52421480 -.00000061  00000+0  00000+0 0  9997
2 28935   0.0519 295.6498 0001550  60.0080 240.9260  1.00272605 62398
SPAINSAT                
1 28945U 06007A   23058.64650182 -.00000222  00000+0  00000+0 0  9996
2 28945   0.0587 259.8240 0004561  48.6357  51.4693  1.00270435 62131
EUTELSAT HOTBIRD 13E    
1 28946U 06007B   23059.43043491  .00000081  00000+0  00000+0 0  9996
2 28946   0.0465 192.2505 0003604 124.6887   8.9481  1.00271920 62245
JCSAT-5A                
1 29045U 06010A   23059.55985122 -.00000334  00000+0  00000+0 0  9992
2 29045   0.0385 264.4046 0001965  79.3880 147.8834  1.00271348 61693
ASTRA 1KR               
1 29055U 06012A   23059.53736271  .00000114  00000+0  00000+0 0  9997
2 29055   0.0936 277.1749 0003548  11.9594  81.5762  1.00272416 33645
EWS-G1 (GOES 13)        
1 29155U 06018A   23059.54573052  .00000033  00000+0  00000+0 0  9991
2 29155   1.2475  92.3751 0003711 178.5392 144.8386  1.00273756 31297
EUTELSAT 113 WEST A     
1 29162U 06020A   23059.52124066 -.00000043  00000+0  00000+0 0  9999
2 29162   0.0620 289.6390 0003050  59.8705 243.1866  1.00271223 61396
GALAXY 16 (G-16)        
1 29236U 06023A   23059.53235767 -.00000132  00000+0  00000+0 0  9995
2 29236   0.0563 271.2093 0002873  71.1562 268.3314  1.00272490 60899
EUTELSAT HOTBIRD 13B    
1 29270U 06032A   23059.43043491  .00000081  00000+0  00000+0 0  9995
2 29270   0.0611 340.8256 0005689   0.9471 344.1190  1.00271957 35223
JCSAT-3A                
1 29272U 06033A   23059.55897958 -.00000351  00000+0  00000+0 0  9997
2 29272   0.0146 179.1214 0001974 180.1594 128.0340  1.00272342 35668
SYRACUSE 3B             
1 29273U 06033B   23059.31729507 -.00000050  00000+0  00000+0 0  9992
2 29273   0.0135 134.7738 0004455 206.6411 285.4414  1.00272077 60623
KOREASAT 5 (MUGUNGWHA 5)
1 29349U 06034A   23059.59355125 -.00000364  00000+0  00000+0 0  9996
2 29349   0.0202 203.4566 0001344 123.2614 158.1285  1.00270465 29242
DIRECTV 9S              
1 29494U 06043A   23059.48664059 -.00000118  00000+0  00000+0 0  9991
2 29494   0.0187 112.9259 0003086 226.0975 252.9695  1.00272050 39303
OPTUS D1                
1 29495U 06043B   23059.54910333 -.00000117  00000+0  00000+0 0  9997
2 29495   0.0509 289.7523 0003480  53.7610 172.2308  1.00269591 60044
XM-4 (BLUES)            
1 29520U 06049A   23059.31006038 -.00000253  00000+0  00000+0 0  9996
2 29520   0.1227 291.9040 0000899  63.2730 232.3338  1.00496250 39388
BADR-4                  
1 29526U 06051A   23058.82162969  .00000139  00000+0  00000+0 0  9998
2 29526   0.0424 340.8755 0006294 354.0640 144.1855  1.00274195 39189
WILDBLUE-1              
1 29643U 06054A   23059.58308115 -.00000055  00000+0  00000+0 0  9998
2 29643   0.0131 214.2442 0001848 122.7178 279.8708  1.00271923 59469
AMC-18                  
1 29644U 06054B   23059.45849039 -.00000221  00000+0  00000+0 0  9995
2 29644   0.0613 291.2978 0002595  55.1244 253.6117  1.00270821 59456
SKYNET 5A               
1 30794U 07007B   23059.62603773 -.00000277  00000+0  00000+0 0  9995
2 30794   2.2144  87.7906 0003401 256.7626 134.1640  1.00270451 58571
ANIK F3                 
1 31102U 07009A   23059.58159935 -.00000006  00000+0  00000+0 0  9992
2 31102   0.0168 138.4479 0002378 194.1363 276.1818  1.00271201 58254
ASTRA 1L                
1 31306U 07016A   23059.53736271  .00000114  00000+0  00000+0 0  9994
2 31306   0.1043 295.1548 0005655  15.9246  59.6074  1.00270985 32924
GALAXY 17 (G-17)        
1 31307U 07016B   23059.53868091 -.00000179  00000+0  00000+0 0  9993
2 31307   0.0163 172.3200 0001881 155.5750 293.1047  1.00270006 57720
ZHONGXING-6B            
1 31800U 07031A   23059.59355125 -.00000368  00000+0  00000+0 0  9993
2 31800   0.0095 168.3189 0004027 164.5190 154.4608  1.00273165 57356
DIRECTV 10              
1 31862U 07032A   23059.52922766 -.00000108  00000+0  00000+0 0  9998
2 31862   0.0099 272.4377 0000167  39.3248 294.0279  1.00271290 33512
SPACEWAY 3              
1 32018U 07036A   23059.51461269 -.00000157  00000+0  00000+0 0  9995
2 32018   0.8759  90.8734 0000396 203.0746 314.3927  1.00271921 34476
BSAT-3A                 
1 32019U 07036B   23059.55540581 -.00000356  00000+0  00000+0 0  9996
2 32019   0.0969 252.9962 0002258  22.1883 192.6823  1.00271562 38430
OPTUS D2                
1 32252U 07044A   23059.34867440 -.00000189  00000+0  00000+0 0  9991
2 32252   0.0278 274.6670 0003764  66.7501  93.9876  1.00271748 56485
INTELSAT 11 (IS-11)     
1 32253U 07044B   23059.48868582 -.00000274  00000+0  00000+0 0  9990
2 32253   0.4399  93.5673 0003113 247.2524 310.1083  1.00271263 56413
WGS F1 (USA 195)        
1 32258U 07046A   23059.42279622  .00000035  00000+0  00000+0 0  9996
2 32258   0.0187 128.8324 0000299 168.2903  19.0321  1.00271725 40268
